CBERS 4                 
1 40336U 14079A   20131.18912463 -.00000035  00000-0  32178-5 0  9993
2 40336  98.5628 203.1322 0000992 115.4441 244.6852 14.35411275284197
CZ-4B R/B               
1 40337U 14079B   20131.13007871  .00000162  00000-0  18929-4 0  9994
2 40337  98.4640  14.1802 0178021  73.2769 288.7899 14.89359771294694
